DMSP 5D-3 F16 (USA 172) 
1 28054U 03048A   26195.61992630 -.00000052  00000+0 -35783-5 0  9992
2 28054  98.9897 219.6288 0008101  72.5816  37.2542 14.14484844173361
METEOSAT-9 (MSG-2)      
1 28912U 05049B   26195.71065512  .00000111  00000+0  00000+0 0  9991
2 28912   9.4218  53.8921 0002144 356.1803 183.9913  1.00271736  7270
DMSP 5D-3 F17 (USA 191) 
1 29522U 06050A   26195.81777303 -.00000024  00000+0  10073-4 0  9991
2 29522  98.7387 201.8233 0009741 344.0085  16.0780 14.14996218 16338
FENGYUN 3A              
1 32958U 08026A   26195.81778755  .00000018  00000+0  29304-4 0  9994
2 32958  98.6887 136.1349 0009673  52.8286 307.3772 14.19576476939323
GOES 14                 
1 35491U 09033A   26195.79771083 -.00000367  00000+0  00000+0 0  9997
2 35491   1.7587  82.6967 0001899  40.3899 222.0628  1.00098247  6863
DMSP 5D-3 F18 (USA 210) 
1 35951U 09057A   26195.86160843  .00000156  00000+0  10377-3 0  9995
2 35951  98.9056 176.5730 0011205 166.4092 193.7384 14.14911469863505
EWS-G2 (GOES 15)        
1 36411U 10008A   26195.87512463  .00000013  00000+0  00000+0 0  9995
2 36411   1.3515  82.4632 0005215  53.7621 174.8648  1.00268500 59918
COMS 1                  
1 36744U 10032A   26195.45878229 -.00000258  00000+0  00000+0 0  9992
2 36744   4.8730  75.0265 0011267  14.7056 332.7369  0.99168113 51358
FENGYUN 3B              
1 37214U 10059A   26195.89473704 -.00000270  00000+0 -11629-3 0  9999
2 37214  98.9611 242.0243 0023155 107.2845   8.5324 14.14846244811340
SUOMI NPP               
1 37849U 11061A   26195.83005801  .00000000  00000+0  21224-4 0  9992
2 37849  98.7955 136.5181 0000733 216.4242 143.6885 14.19522530762366
METEOSAT-10 (MSG-3)     
1 38552U 12035B   26195.77294064 -.00000018  00000+0  00000+0 0  9994
2 38552   4.7350  60.8824 0001130  16.5114 133.5417  1.00270718 51135
METOP-B                 
1 38771U 12049A   26195.85322833  .00000042  00000+0  38905-4 0  9993
2 38771  98.6490 246.7984 0001077 257.5838 102.5219 14.21446296717191
INSAT-3D                
1 39216U 13038B   26195.79857751 -.00000349  00000+0  00000+0 0  9993
2 39216   1.9951  82.1895 0000517  83.0443 184.4093  1.00268638 47358
FENGYUN 3C              
1 39260U 13052A   26195.88911120  .00000028  00000+0  35591-4 0  9990
2 39260  98.4998 168.4947 0013684 306.9338  53.0583 14.15760737662483
METEOR-M 2              
1 40069U 14037A   26195.87919494 -.00000199  00000+0 -71545-4 0  9994
2 40069  98.5124 170.6389 0005188 328.1737  31.9127 14.21468738623252
HIMAWARI-8              
1 40267U 14060A   26195.80074419 -.00000284  00000+0  00000+0 0  9999
2 40267   0.0163 356.9544 0001079 172.5336 192.1053  1.00271554 43037
FENGYUN 2G              
1 40367U 14090A   26195.74547804 -.00000314  00000+0  00000+0 0  9993
2 40367   5.7061  72.4807 0004121 171.8392  55.9516  1.00281192 42278
METEOSAT-11 (MSG-4)     
1 40732U 15034A   26195.77476065  .00000051  00000+0  00000+0 0  9998
2 40732   3.2680  70.9353 0002190 354.0310 155.8272  1.00271728  7490
ELEKTRO-L 2             
1 41105U 15074A   26195.41356580 -.00000129  00000+0  00000+0 0  9994
2 41105   6.7595  70.1832 0001026 212.6794 143.7919  1.00272099 38775
SENTINEL-3A             
1 41335U 16011A   26195.84772786  .00000038  00000+0  33894-4 0  9998
2 41335  98.6238 262.8323 0001361  90.0014 270.1322 14.26739681542000
INSAT-3DR               
1 41752U 16054A   26195.82553707 -.00000085  00000+0  00000+0 0  9997
2 41752   0.0689  88.6872 0010589 181.2817  33.9024  1.00270683 36090
HIMAWARI-9              
1 41836U 16064A   26195.58689512  .00000000  00000+0  00000+0 0  9994
2 41836   0.0126 316.2514 0002288 222.2337 105.9965  1.00265737 35482
GOES 16                 
1 41866U 16071A   26195.68089252 -.00000099  00000+0  00000+0 0  9990
2 41866   0.4025  85.4749 0000527  98.1238 249.3671  1.00270922 35373
FENGYUN 4A              
1 41882U 16077A   26195.79745084 -.00000367  00000+0  00000+0 0  9996
2 41882   2.3898  79.9598 0008506 159.5927 103.9340  1.00268349 35202
CYGFM05                 
1 41884U 16078A   26195.80923090  .00015378  00000+0  19982-3 0  9996
2 41884  34.9569  77.5131 0006047  33.0184 327.0918 15.57843054533062
CYGFM04                 
1 41885U 16078B   26195.81852939  .00020900  00000+0  22188-3 0  9990
2 41885  34.9324  43.7020 0004229  79.7565 280.3638 15.63063348533320
CYGFM02                 
1 41886U 16078C   26195.82764747  .00025129  00000+0  23385-3 0  9999
2 41886  34.9405  37.3299 0004961  84.1250 276.0042 15.66340345533501
CYGFM01                 
1 41887U 16078D   26195.78553326  .00016144  00000+0  20411-3 0  9998
2 41887  34.9399  78.4980 0006024  25.7912 334.3113 15.58560597533012
CYGFM08                 
1 41888U 16078E   26195.82383988  .00019298  00000+0  21825-3 0  9992
2 41888  34.9433  57.0663 0006219  64.7045 295.4324 15.61441664533297
CYGFM07                 
1 41890U 16078G   26195.84510840  .00019601  00000+0  22082-3 0  9990
2 41890  34.9447  45.2417 0004639  80.9293 279.1957 15.61551104533326
CYGFM03                 
1 41891U 16078H   26195.81630023  .00019622  00000+0  22117-3 0  9996
2 41891  34.9404  47.3629 0004529  62.7392 297.3794 15.61537270533299
