OBJECT_NAME,OBJECT_ID,EPOCH,MEAN_MOTION,ECCENTRICITY,INCLINATION,RA_OF_ASC_NODE,ARG_OF_PERICENTER,MEAN_ANOMALY,EPHEMERIS_TYPE,CLASSIFICATION_TYPE,NORAD_CAT_ID,ELEMENT_SET_NO,REV_AT_EPOCH,BSTAR,MEAN_MOTION_DOT,MEAN_MOTION_DDOT
DMSP 5D-3 F16 (USA 172),2003-048A,2026-07-14T14:52:41.632320,14.14484844,.00081019,98.9897,219.6288,72.5816,37.2542,0,U,28054,999,17336,-.3578298E-5,-.52E-6,0
METEOSAT-9 (MSG-2),2005-049B,2026-07-14T17:03:20.602368,1.00271736,.0002144,9.4218,53.8921,356.1803,183.9913,0,U,28912,999,727,0,.111E-5,0
DMSP 5D-3 F17 (USA 191),2006-050A,2026-07-14T19:37:35.589792,14.14996218,.0009741,98.7387,201.8233,344.0085,16.0780,0,U,29522,999,1633,.10073E-4,-.24E-6,0
FENGYUN 3A,2008-026A,2026-07-14T19:37:36.844320,14.19576476,.0009673,98.6887,136.1349,52.8286,307.3772,0,U,32958,999,93932,.29304E-4,.18E-6,0
GOES 14,2009-033A,2026-07-14T19:08:42.215712,1.00098247,.0001899,1.7587,82.6967,40.3899,222.0628,0,U,35491,999,686,0,-.367E-5,0
DMSP 5D-3 F18 (USA 210),2009-057A,2026-07-14T20:40:42.968352,14.14911469,.0011205,98.9056,176.5730,166.4092,193.7384,0,U,35951,999,86350,.10377E-3,.156E-5,0
EWS-G2 (GOES 15),2010-008A,2026-07-14T21:00:10.768032,1.00268500,.0005215,1.3515,82.4632,53.7621,174.8648,0,U,36411,999,5991,0,.13E-6,0
COMS 1,2010-032A,2026-07-14T11:00:38.789856,0.99168113,.00112678,4.8730,75.0265,14.7056,332.7369,0,U,36744,999,5135,0,-.258E-5,0
FENGYUN 3B,2010-059A,2026-07-14T21:28:25.280256,14.14846244,.0023155,98.9611,242.0243,107.2845,8.5324,0,U,37214,999,81134,-.11629E-3,-.27E-5,0
SUOMI NPP,2011-061A,2026-07-14T19:55:17.012064,14.19522530,.0000733,98.7955,136.5181,216.4242,143.6885,0,U,37849,999,76236,.21224E-4,0,0
METEOSAT-10 (MSG-3),2012-035B,2026-07-14T18:33:02.071296,1.00270718,.000113,4.7350,60.8824,16.5114,133.5417,0,U,38552,999,5113,0,-.18E-6,0
METOP-B,2012-049A,2026-07-14T20:28:38.927712,14.21446296,.0001077,98.6490,246.7984,257.5838,102.5219,0,U,38771,999,71719,.38905E-4,.42E-6,0
INSAT-3D,2013-038B,2026-07-14T19:09:57.096864,1.00268638,.0000517,1.9951,82.1895,83.0443,184.4093,0,U,39216,999,4735,0,-.349E-5,0
FENGYUN 3C,2013-052A,2026-07-14T21:20:19.207680,14.15760737,.0013684,98.4998,168.4947,306.9338,53.0583,0,U,39260,999,66248,.35591E-4,.28E-6,0
METEOR-M 2,2014-037A,2026-07-14T21:06:02.442816,14.21468738,.0005188,98.5124,170.6389,328.1737,31.9127,0,U,40069,999,62325,-.71545E-4,-.199E-5,0
HIMAWARI-8,2014-060A,2026-07-14T19:13:04.298016,1.00271554,.0001079,0.0163,356.9544,172.5336,192.1053,0,U,40267,999,4303,0,-.284E-5,0
FENGYUN 2G,2014-090A,2026-07-14T17:53:29.302656,1.00281192,.0004121,5.7061,72.4807,171.8392,55.9516,0,U,40367,999,4227,0,-.314E-5,0
METEOSAT-11 (MSG-4),2015-034A,2026-07-14T18:35:39.320160,1.00271728,.000219,3.2680,70.9353,354.0310,155.8272,0,U,40732,999,749,0,.51E-6,0
ELEKTRO-L 2,2015-074A,2026-07-14T09:55:32.085120,1.00272099,.00010268,6.7595,70.1832,212.6794,143.7919,0,U,41105,999,3877,0,-.129E-5,0
SENTINEL-3A,2016-011A,2026-07-14T20:20:43.687104,14.26739681,.0001361,98.6238,262.8323,90.0014,270.1322,0,U,41335,999,54200,.33894E-4,.38E-6,0
INSAT-3DR,2016-054A,2026-07-14T19:48:46.402848,1.00270683,.0010589,0.0689,88.6872,181.2817,33.9024,0,U,41752,999,3609,0,-.85E-6,0
HIMAWARI-9,2016-064A,2026-07-14T14:05:07.738368,1.00265737,.0002288,0.0126,316.2514,222.2337,105.9965,0,U,41836,999,3548,0,0,0
GOES 16,2016-071A,2026-07-14T16:20:29.113728,1.00270922,.0000527,0.4025,85.4749,98.1238,249.3671,0,U,41866,999,3537,0,-.99E-6,0
FENGYUN 4A,2016-077A,2026-07-14T19:08:19.752576,1.00268349,.0008506,2.3898,79.9598,159.5927,103.9340,0,U,41882,999,3520,0,-.367E-5,0
CYGFM05,2016-078A,2026-07-14T19:25:17.549760,15.57843054,.0006047,34.9569,77.5131,33.0184,327.0918,0,U,41884,999,53306,.19982E-3,.15378E-3,0
CYGFM04,2016-078B,2026-07-14T19:38:40.939296,15.63063348,.0004229,34.9324,43.7020,79.7565,280.3638,0,U,41885,999,53332,.22188E-3,.209E-3,0
CYGFM02,2016-078C,2026-07-14T19:51:48.741408,15.66340345,.0004961,34.9405,37.3299,84.1250,276.0042,0,U,41886,999,53350,.23385E-3,.25129E-3,0
CYGFM01,2016-078D,2026-07-14T18:51:10.073664,15.58560597,.0006024,34.9399,78.4980,25.7912,334.3113,0,U,41887,999,53301,.20411E-3,.16144E-3,0
CYGFM08,2016-078E,2026-07-14T19:46:19.765632,15.61441664,.0006219,34.9433,57.0663,64.7045,295.4324,0,U,41888,999,53329,.21825E-3,.19298E-3,0
CYGFM07,2016-078G,2026-07-14T20:16:57.365760,15.61551104,.0004639,34.9447,45.2417,80.9293,279.1957,0,U,41890,999,53332,.22082E-3,.19601E-3,0
CYGFM03,2016-078H,2026-07-14T19:35:28.339872,15.61537270,.0004529,34.9404,47.3629,62.7392,297.3794,0,U,41891,999,53329,.22117E-3,.19622E-3,0
